[{"OBJECT_NAME":"LEMUR-2-AMANDA-SVANTE","OBJECT_ID":"2021-034B","EPOCH":"2026-03-09T18:37:58.823328","MEAN_MOTION":15.28469003,"ECCENTRICITY":0.00027027,"INCLINATION":97.5829,"RA_OF_ASC_NODE":144.8625,"ARG_OF_PERICENTER":205.4721,"MEAN_ANOMALY":154.6385,"EPHEMERIS_TYPE":0,"CLASSIFICATION_TYPE":"U","NORAD_CAT_ID":48269,"ELEMENT_SET_NO":999,"REV_AT_EPOCH":26584,"BSTAR":0.0011134246,"MEAN_MOTION_DOT":0.00030872,"MEAN_MOTION_DDOT":0},{"OBJECT_NAME":"STARLINK-35833","OBJECT_ID":"2025-265AC","EPOCH":"2026-03-09T22:08:20.691744","MEAN_MOTION":15.27594133,"ECCENTRICITY":0.00010771,"INCLINATION":42.9946,"RA_OF_ASC_NODE":277.0887,"ARG_OF_PERICENTER":296.0091,"MEAN_ANOMALY":64.065,"EPHEMERIS_TYPE":0,"CLASSIFICATION_TYPE":"U","NORAD_CAT_ID":66542,"ELEMENT_SET_NO":999,"REV_AT_EPOCH":1714,"BSTAR":0.00087240951,"MEAN_MOTION_DOT":0.00023833,"MEAN_MOTION_DDOT":0}]
